NORAD_CAT_ID,OBJECT_NAME,OBJECT_TYPE,EPOCH,MEAN_MOTION,ECCENTRICITY,INCLINATION,RA_OF_ASC_NODE,ARG_OF_PERICENTER,MEAN_ANOMALY,BSTAR,MEAN_MOTION_DOT,MEAN_MOTION_DDOT,TLE_LINE0,TLE_LINE1,TLE_LINE2,SEMIMAJOR_AXIS,PERIOD,APOGEE,PERIGEE,DECAYED
53266.0,STARLINK-4058,PAYLOAD,2022-11-18 16:50:03,15.08842453,0.0001531999999999,53.2177,212.4856,66.1509,293.9644,7.4561e-05,8.99e-06,0.0,0 STARLINK-4058,1 53266U 22086AA  22322.70142700  .00000899  00000-0  74561-4 0  9995,2 53266  53.2177 212.4856 0001532  66.1509 293.9644 15.08842453 18674,6917.873000000001,95.437,540.798,538.678,0.0
53266.0,STARLINK-4058,PAYLOAD,2022-11-19 02:22:22,15.08835314,0.0001595,53.2188,210.701,65.2015,294.9143,2.7103e-05,1.43e-06,0.0,0 STARLINK-4058,1 53266U 22086AA  22323.09887325  .00000143  00000-0  27103-4 0  9999,2 53266  53.2188 210.7010 0001595  65.2015 294.9143 15.08835314 18730,6917.895,95.438,540.863,538.656,0.0
53266.0,STARLINK-4058,PAYLOAD,2022-11-20 02:13:09,15.08841324,0.0001661,53.2179,206.2427,56.5887,303.5264,3.7943e-05,3.16e-06,0.0,0 STARLINK-4058,1 53266U 22086AA  22324.09246795  .00000316  00000-0  37943-4 0  9995,2 53266  53.2179 206.2427 0001661  56.5887 303.5264 15.08841324 18881,6917.876,95.437,540.89,538.592,0.0
53266.0,STARLINK-4058,PAYLOAD,2022-11-20 19:42:24,15.08829211,0.0001512,53.2176,202.9716,59.0377,301.0764,-1.1999e-05,-4.79e-06,0.0,0 STARLINK-4058,1 53266U 22086AA  22324.82111816 -.00000479  00000-0 -11999-4 0  9996,2 53266  53.2176 202.9716 0001512  59.0377 301.0764 15.08829211 18990,6917.913000000001,95.438,540.8240000000002,538.732,0.0
53266.0,STARLINK-4058,PAYLOAD,2022-11-21 02:03:57,15.08826883,0.0001547,53.2172,201.7824,59.0054,301.1090000000001,-2.6684e-05,-7.12e-06,0.0,0 STARLINK-4058,1 53266U 22086AA  22325.08608192 -.00000712  00000-0 -26684-4 0  9990,2 53266  53.2172 201.7824 0001547  59.0054 301.1090 15.08826883 19214,6917.92,95.438,540.856,538.715,0.0
53266.0,STARLINK-4058,PAYLOAD,2022-11-21 19:33:11,15.08832857,0.0001608,53.2168,198.5117,60.8683,299.247,3.8801e-05,3.29e-06,0.0,0 STARLINK-4058,1 53266U 22086AA  22325.81471879  .00000329  00000-0  38801-4 0  9997,2 53266  53.2168 198.5117 0001608  60.8683 299.2470 15.08832857 19322,6917.901999999999,95.438,540.88,538.655,0.0
53266.0,STARLINK-4058,PAYLOAD,2022-11-22 00:19:20,15.08836243,0.0001647,53.2167,197.6196,61.7609,298.355,6.714399999999999e-05,7.81e-06,0.0,0 STARLINK-4058,1 53266U 22086AA  22326.01343653  .00000781  00000-0  67144-4 0  9992,2 53266  53.2167 197.6196 0001647  61.7609 298.3550 15.08836243 19174,6917.892,95.438,540.896,538.617,0.0
53266.0,STARLINK-4058,PAYLOAD,2022-11-22 08:16:16,15.08836703,0.000166,53.2167,196.1328,61.7512,298.3647,6.6265e-05,7.67e-06,0.0,0 STARLINK-4058,1 53266U 22086AA  22326.34463723  .00000767  00000-0  66265-4 0  9996,2 53266  53.2167 196.1328 0001660  61.7512 298.3647 15.08836703 19407,6917.89,95.438,540.904,538.607,0.0
53266.0,STARLINK-4058,PAYLOAD,2022-11-22 20:59:21,15.08832519,0.0001644,53.2169,193.7541,61.889,298.2268,0.00010159,1.329e-05,0.0,0 STARLINK-4058,1 53266U 22086AA  22326.87455970  .00001329  00000-0  10159-3 0  9994,2 53266  53.2169 193.7541 0001644  61.8890 298.2268 15.08832519 19488,6917.903,95.438,540.906,538.631,0.0
53266.0,STARLINK-4058,PAYLOAD,2022-11-23 01:45:31,15.08828849,0.0001635,53.2167,192.8621,61.1722,298.9434,6.5406e-05,7.53e-06,0.0,0 STARLINK-4058,1 53266U 22086AA  22327.07328438  .00000753  00000-0  65406-4 0  9991,2 53266  53.2167 192.8621 0001635  61.1722 298.9434 15.08828849 19339,6917.9140000000025,95.438,540.911,538.648,0.0
53266.0,STARLINK-4058,PAYLOAD,2022-11-23 08:07:04,15.08830373,0.0001641,53.2167,191.6727,61.9878,298.128,5.2853e-05,5.53e-06,0.0,0 STARLINK-4058,1 53266U 22086AA  22327.33824564  .00000553  00000-0  52853-4 0  9991,2 53266  53.2167 191.6727 0001641  61.9878 298.1280 15.08830373 19550,6917.91,95.438,540.91,538.64,0.0
53266.0,STARLINK-4058,PAYLOAD,2022-11-23 19:14:46,15.08839382,0.0001561999999999,53.2167,189.5904,62.2137,297.9014,2.3515e-05,8.6e-07,0.0,0 STARLINK-4058,1 53266U 22086AA  22327.80192207  .00000086  00000-0  23515-4 0  9999,2 53266  53.2167 189.5904 0001562  62.2137 297.9014 15.08839382 19626,6917.882,95.438,540.828,538.6669999999998,0.0
53266.0,STARLINK-4058,PAYLOAD,2022-11-24 00:00:55,15.08841396,0.0001599,53.2168,188.6985,62.2423,297.8731,4.0229e-05,3.52e-06,0.0,0 STARLINK-4058,1 53266U 22086AA  22328.00064027  .00000352  00000-0  40229-4 0  9997,2 53266  53.2168 188.6985 0001599  62.2423 297.8731 15.08841396 19470,6917.876,95.437,540.847,538.635,0.0
53266.0,STARLINK-4058,PAYLOAD,2022-11-24 07:57:50,15.08844768,0.0001533,53.2163,187.212,61.8438,298.2709,4.6368e-05,4.5e-06,0.0,0 STARLINK-4058,1 53266U 22086AA  22328.33183733  .00000450  00000-0  46368-4 0  9998,2 53266  53.2163 187.2120 0001533  61.8438 298.2709 15.08844768 19702,6917.866,95.437,540.7909999999998,538.67,0.0
53266.0,STARLINK-4058,PAYLOAD,2022-11-24 20:40:55,15.08843497,0.000158,53.2167,184.8328,62.2174,297.8978,0.00010601,1.4e-05,0.0,0 STARLINK-4058,1 53266U 22086AA  22328.86175425  .00001400  00000-0  10601-3 0  9991,2 53266  53.2167 184.8328 0001580  62.2174 297.8978 15.08843497 19782,6917.87,95.437,540.828,538.6419999999998,0.0
53266.0,STARLINK-4058,PAYLOAD,2022-11-25 07:48:37,15.0884951,0.0001395999999999,53.2177,182.7514,66.3088,293.8051,-2.849e-05,-7.41e-06,0.0,0 STARLINK-4058,1 53266U 22086AA  22329.32543290 -.00000741  00000-0 -28490-4 0  9997,2 53266  53.2177 182.7514 0001396  66.3088 293.8051 15.08849510 19679,6917.851,95.437,540.682,538.751,0.0
53266.0,STARLINK-4058,PAYLOAD,2022-11-25 14:10:10,15.08833677,0.0001478,53.218,181.5617,62.2889,297.8253,-4.6518e-07,-2.95e-06,0.0,0 STARLINK-4058,1 53266U 22086AA  22329.59040494 -.00000295  00000-0 -46518-6 0  9991,2 53266  53.2180 181.5617 0001478  62.2889 297.8253 15.08833677 19719,6917.9,95.438,540.7869999999998,538.742,0.0
53266.0,STARLINK-4058,PAYLOAD,2022-11-25 20:31:43,15.08837207,0.0001564999999999,53.2181,180.3723,62.8169,297.2983,-5.2779e-06,-3.72e-06,0.0,0 STARLINK-4058,1 53266U 22086AA  22329.85536329 -.00000372  00000-0 -52779-5 0  9998,2 53266  53.2181 180.3723 0001565  62.8169 297.2983 15.08837207 19930,6917.889,95.438,540.837,538.6709999999998,0.0
53266.0,STARLINK-4058,PAYLOAD,2022-11-26 01:17:51,15.08870999,0.0001579,53.2182,179.481,56.2478,303.8664,-0.00030768,-5.186e-05,0.0,0 STARLINK-4058,1 53266U 22086AA  22330.05407186 -.00005186  00000-0 -30768-3 0  9990,2 53266  53.2182 179.4810 0001579  56.2478 303.8664 15.08870999 19780,6917.786,95.436,540.743,538.558,0.0
53266.0,STARLINK-4058,PAYLOAD,2022-11-26 07:39:24,15.08856087,0.0001609,53.2182,178.2917,59.0712,301.0439,-0.0001089,-2.022e-05,0.0,0 STARLINK-4058,1 53266U 22086AA  22330.31903314 -.00002022  00000-0 -10890-3 0  9993,2 53266  53.2182 178.2917 0001609  59.0712 301.0439 15.08856087 19828,6917.831,95.437,540.809,538.5830000000002,0.0
53266.0,STARLINK-4058,PAYLOAD,2022-11-26 14:00:57,15.0884818,0.0001597,53.2182,177.1022,60.3654,299.7497,1.4276e-05,-6.1e-07,0.0,0 STARLINK-4058,1 53266U 22086AA  22330.58399365 -.00000061  00000-0  14276-4 0  9990,2 53266  53.2182 177.1022 0001597  60.3654 299.7497 15.08848180 20047,6917.855,95.437,540.825,538.616,0.0
53266.0,STARLINK-4058,PAYLOAD,2022-11-26 20:22:29,15.08850839,0.000161,53.2183,175.9128,60.7574,299.3579,3.639e-05,2.91e-06,0.0,0 STARLINK-4058,1 53266U 22086AA  22330.84894971  .00000291  00000-0  36390-4 0  9997,2 53266  53.2183 175.9128 0001610  60.7574 299.3579 15.08850839 20087,6917.847,95.437,540.826,538.5980000000002,0.0
53266.0,STARLINK-4058,PAYLOAD,2022-11-26 23:33:15,15.08844777,0.0001667,53.2182,175.3178,62.4387,297.6775,0.00013022,1.785e-05,0.0,0 STARLINK-4058,1 53266U 22086AA  22330.98142978  .00001785  00000-0  13022-3 0  9990,2 53266  53.2182 175.3178 0001667  62.4387 297.6775 15.08844777 20104,6917.866,95.437,540.884,538.578,0.0
53266.0,STARLINK-4058,PAYLOAD,2022-11-27 17:02:30,15.08838917,0.000169,53.2179,172.0467,64.2916,295.8251,8.256700000000002e-07,-2.75e-06,0.0,0 STARLINK-4058,1 53266U 22086AA  22331.71007787 -.00000275  00000-0  82567-6 0  9997,2 53266  53.2179 172.0467 0001690  64.2916 295.8251 15.08838917 20039,6917.884,95.438,540.918,538.58,0.0
53266.0,STARLINK-4058,PAYLOAD,2022-11-28 12:07:08,15.088424,0.0001709,53.2178,168.4784,64.0187,296.0981,9.6013e-07,-2.73e-06,0.0,0 STARLINK-4058,1 53266U 22086AA  22332.50495504 -.00000273  00000-0  96013-6 0  9992,2 53266  53.2178 168.4784 0001709  64.0187 296.0981 15.08842400 20336,6917.873000000001,95.437,540.92,538.556,0.0
53266.0,STARLINK-4058,PAYLOAD,2022-11-28 20:04:04,15.08838574,0.0001717,53.2177,166.9913,65.3658,294.7513,-6.0782e-05,-1.255e-05,0.0,0 STARLINK-4058,1 53266U 22086AA  22332.83616039 -.00001255  00000-0 -60782-4 0  9990,2 53266  53.2177 166.9913 0001717  65.3658 294.7513 15.08838574 20207,6917.885,95.438,540.938,538.562,0.0
53266.0,STARLINK-4058,PAYLOAD,2022-11-29 11:57:56,15.08826243,0.0001567,53.2181,164.0177,57.9009,302.2135,-3.7291e-05,-8.81e-06,0.0,0 STARLINK-4058,1 53266U 22086AA  22333.49857080 -.00000881  00000-0 -37291-4 0  9999,2 53266  53.2181 164.0177 0001567  57.9009 302.2135 15.08826243 20488,6917.922,95.438,540.871,538.703,0.0
53266.0,STARLINK-4058,PAYLOAD,2022-11-29 19:54:52,15.08827314,0.0001567,53.2183,162.5314,59.1916,300.923,-4.8584e-05,-1.061e-05,0.0,0 STARLINK-4058,1 53266U 22086AA  22333.82977324 -.00001061  00000-0 -48584-4 0  9998,2 53266  53.2183 162.5314 0001567  59.1916 300.9230 15.08827314 20354,6917.919,95.438,540.868,538.7,0.0
53266.0,STARLINK-4058,PAYLOAD,2022-11-30 05:27:11,15.08831386,0.0001594,53.2183,160.747,59.091,301.0239,-1.6398e-05,-5.49e-06,0.0,0 STARLINK-4058,1 53266U 22086AA  22334.22721157 -.00000549  00000-0 -16398-4 0  9992,2 53266  53.2183 160.7470 0001594  59.0910 301.0239 15.08831386 20591,6917.906999999997,95.438,540.874,538.669,0.0
